{"type": "FeatureCollection", "features": [ {"type": "Feature", "properties": {"norad_id": 64202, "name": "GPS BIII-8  (PRN 21)", "group": "gnss", "lat": 32.68327407959067, "lon": 65.0930032359135, "alt_km": 20179.47226081933, "timestamp": "2025-12-16T03:53:27.299513+00:00", "meta": {"OBJECT_NAME": "GPS BIII-8  (PRN 21)", "OBJECT_ID": "2025-116A", "EPOCH": "2025-12-14T02:46:13.653120", "MEAN_MOTION": 2.00558299, "ECCENTRICITY": 0.00056153, "INCLINATION": 55.1067, "RA_OF_ASC_NODE": 38.5851, "ARG_OF_PERICENTER": 308.147, "MEAN_ANOMALY": 55.2369, "EPHEMERIS_TYPE": 0, "CLASSIFICATION_TYPE": "U", "NORAD_CAT_ID": 64202, "ELEMENT_SET_NO": 999, "REV_AT_EPOCH": 416, "BSTAR": 0, "MEAN_MOTION_DOT": -9.6e-07, "MEAN_MOTION_DDOT": 0}, "tle": {"line1": "1 64202U 25116A   25348.11543580 -.00000096  00000+0  00000+0 0  9992", "line2": "2 64202  55.1067  38.5851 0005615 308.1470  55.2369  2.00558299  4161"}}, "geometry": {"type": "Point", "coordinates": [65.0930032359135, 32.68327407959067]}}, {"type": "Feature", "properties": {"norad_id": 65590, "name": "COSMOS 2596 (708K)", "group": "gnss", "lat": 32.78665071815595, "lon": 123.6421693686457, "alt_km": 19160.69830006464, "timestamp": "2025-12-16T03:53:27.299531+00:00", "meta": {"OBJECT_NAME": "COSMOS 2596 (708K)", "OBJECT_ID": "2025-206B", "EPOCH": "2025-12-15T06:31:38.583840", "MEAN_MOTION": 2.13100545, "ECCENTRICITY": 0.00140608, "INCLINATION": 64.7428, "RA_OF_ASC_NODE": 321.386, "ARG_OF_PERICENTER": 306.8373, "MEAN_ANOMALY": 233.4816, "EPHEMERIS_TYPE": 0, "CLASSIFICATION_TYPE": "U", "NORAD_CAT_ID": 65590, "ELEMENT_SET_NO": 999, "REV_AT_EPOCH": 199, "BSTAR": 0, "MEAN_MOTION_DOT": -6.8e-07, "MEAN_MOTION_DDOT": 0}, "tle": {"line1": "1 65590U 25206B   25349.27197435 -.00000068  00000+0  00000+0 0  9994", "line2": "2 65590  64.7428 321.3860 0014060 306.8373 233.4816  2.13100545  1999"}}, "geometry": {"type": "Point", "coordinates": [123.6421693686457, 32.78665071815595]}}]}